{"fetched_at":"2026-03-29T16:36:15Z","count":15609,"tles":[{"name":"STARLINK-5037","line1":"1 53896U 22119L   26087.67910994 -.00000253  00000+0  21813-5 0  9994","line2":"2 53896  53.2168 238.7120 0001325  90.6666 269.4478 15.08838082194552","category":"Starlink"}]}